ONEWEB-0043             
1 45149U 20008U   24076.83298408 -.00000801  00000+0 -23301-2 0  9995
2 45149  87.8982 199.6582 0002260  98.6075 261.5308 13.10374400200484
ONEWEB-0044             
1 45150U 20008V   24076.86222532  .00000629  00000+0  17653-2 0  9994
2 45150  87.8979 199.6481 0002003  96.2315 263.9041 13.10374208201551
ONEWEB-0045             
1 45151U 20008W   24077.37003422  .00000477  00000+0  13115-2 0  9997
2 45151  87.9037 184.4468 0001686 104.4427 255.6888 13.11414946203472
ONEWEB-0047             
1 45152U 20008X   24076.85410494  .00000381  00000+0  10562-2 0  9998
2 45152  87.8981 199.6518 0001809 103.2123 256.9206 13.10378309200501
ONEWEB-0048             
1 45153U 20008Y   24076.84923611  .00000165  00000+0  43666-3 0  9990
2 45153  87.8985 199.6664 0001766 102.7342 257.3983 13.10378122200114
ONEWEB-0049             
1 45154U 20008Z   24076.85089067  .00000223  00000+0  60169-3 0  9992
2 45154  87.8989 199.6423 0002369 110.8630 249.2752 13.10377257200338
ONEWEB-0051             
1 45155U 20008AA  24076.83433043  .00000409  00000+0  11189-2 0  9991
2 45155  87.9038 184.5936 0001631 110.3734 249.7569 13.11414525204086
ONEWEB-0052             
1 45156U 20008AB  24076.84762424  .00000070  00000+0  16387-3 0  9991
2 45156  87.8981 199.6213 0002374 107.1721 252.9666 13.10376588201001
